<?xml version="1.0" encoding="UTF-8"?>
<ndm xmlns:xsi="https://www.w3.org/2001/XMLSchema-instance" xsi:noNamespaceSchemaLocation="https://sanaregistry.org/r/ndmxml/ndmxml-1.0-master.xsd">
<omm id="CCSDS_OMM_VERS" version="2.0">
<header><CREATION_DATE/><ORIGINATOR/></header><body><segment><metadata><OBJECT_NAME>STARLINK-1616</OBJECT_NAME><OBJECT_ID>2020-057AH</OBJECT_ID><CENTER_NAME>EARTH</CENTER_NAME><REF_FRAME>TEME</REF_FRAME><TIME_SYSTEM>UTC</TIME_SYSTEM><MEAN_ELEMENT_THEORY>SGP4</MEAN_ELEMENT_THEORY></metadata><data><meanElements><EPOCH>2020-09-08T22:00:00.999936</EPOCH><MEAN_MOTION>15.66274400</MEAN_MOTION><ECCENTRICITY>.0001251</ECCENTRICITY><INCLINATION>53.0004</INCLINATION><RA_OF_ASC_NODE>335.2794</RA_OF_ASC_NODE><ARG_OF_PERICENTER>53.6921</ARG_OF_PERICENTER><MEAN_ANOMALY>165.6550</MEAN_ANOMALY></meanElements><tleParameters><EPHEMERIS_TYPE>0</EPHEMERIS_TYPE><CLASSIFICATION_TYPE>U</CLASSIFICATION_TYPE><NORAD_CAT_ID>46148</NORAD_CAT_ID><ELEMENT_SET_NO>999</ELEMENT_SET_NO><REV_AT_EPOCH>177</REV_AT_EPOCH><BSTAR>-.23400E-3</BSTAR><MEAN_MOTION_DOT>-2.5124E-4</MEAN_MOTION_DOT><MEAN_MOTION_DDOT>0</MEAN_MOTION_DDOT></tleParameters></data></segment></body></omm>
<omm id="CCSDS_OMM_VERS" version="2.0">
<header><CREATION_DATE/><ORIGINATOR/></header><body><segment><metadata><OBJECT_NAME>STARLINK-1620</OBJECT_NAME><OBJECT_ID>2020-057AJ</OBJECT_ID><CENTER_NAME>EARTH</CENTER_NAME><REF_FRAME>TEME</REF_FRAME><TIME_SYSTEM>UTC</TIME_SYSTEM><MEAN_ELEMENT_THEORY>SGP4</MEAN_ELEMENT_THEORY></metadata><data><meanElements><EPOCH>2020-09-08T17:53:17.726784</EPOCH><MEAN_MOTION>15.66342691</MEAN_MOTION><ECCENTRICITY>.0001135</ECCENTRICITY><INCLINATION>53.0000</INCLINATION><RA_OF_ASC_NODE>336.0747</RA_OF_ASC_NODE><ARG_OF_PERICENTER>336.9964</ARG_OF_PERICENTER><MEAN_ANOMALY>23.1000</MEAN_ANOMALY></meanElements><tleParameters><EPHEMERIS_TYPE>0</EPHEMERIS_TYPE><CLASSIFICATION_TYPE>U</CLASSIFICATION_TYPE><NORAD_CAT_ID>46149</NORAD_CAT_ID><ELEMENT_SET_NO>999</ELEMENT_SET_NO><REV_AT_EPOCH>462</REV_AT_EPOCH><BSTAR>.11824E-3</BSTAR><MEAN_MOTION_DOT>1.1941E-4</MEAN_MOTION_DOT><MEAN_MOTION_DDOT>0</MEAN_MOTION_DDOT></tleParameters></data></segment></body></omm>
<omm id="CCSDS_OMM_VERS" version="2.0">
<header><CREATION_DATE/><ORIGINATOR/></header><body><segment><metadata><OBJECT_NAME>STARLINK-1629</OBJECT_NAME><OBJECT_ID>2020-057AK</OBJECT_ID><CENTER_NAME>EARTH</CENTER_NAME><REF_FRAME>TEME</REF_FRAME><TIME_SYSTEM>UTC</TIME_SYSTEM><MEAN_ELEMENT_THEORY>SGP4</MEAN_ELEMENT_THEORY></metadata><data><meanElements><EPOCH>2020-09-08T22:00:00.999936</EPOCH><MEAN_MOTION>15.62806130</MEAN_MOTION><ECCENTRICITY>.0005545</ECCENTRICITY><INCLINATION>53.0013</INCLINATION><RA_OF_ASC_NODE>335.5827</RA_OF_ASC_NODE><ARG_OF_PERICENTER>295.5566</ARG_OF_PERICENTER><MEAN_ANOMALY>137.3953</MEAN_ANOMALY></meanElements><tleParameters><EPHEMERIS_TYPE>0</EPHEMERIS_TYPE><CLASSIFICATION_TYPE>U</CLASSIFICATION_TYPE><NORAD_CAT_ID>46150</NORAD_CAT_ID><ELEMENT_SET_NO>999</ELEMENT_SET_NO><REV_AT_EPOCH>177</REV_AT_EPOCH><BSTAR>-.51827E-3</BSTAR><MEAN_MOTION_DOT>-4.7853E-4</MEAN_MOTION_DOT><MEAN_MOTION_DDOT>0</MEAN_MOTION_DDOT></tleParameters></data></segment></body></omm>
<omm id="CCSDS_OMM_VERS" version="2.0">
<header><CREATION_DATE/><ORIGINATOR/></header><body><segment><metadata><OBJECT_NAME>STARLINK-1631</OBJECT_NAME><OBJECT_ID>2020-057AL</OBJECT_ID><CENTER_NAME>EARTH</CENTER_NAME><REF_FRAME>TEME</REF_FRAME><TIME_SYSTEM>UTC</TIME_SYSTEM><MEAN_ELEMENT_THEORY>SGP4</MEAN_ELEMENT_THEORY></metadata><data><meanElements><EPOCH>2020-09-08T22:00:00.999936</EPOCH><MEAN_MOTION>15.72324444</MEAN_MOTION><ECCENTRICITY>.0002058</ECCENTRICITY><INCLINATION>52.9979</INCLINATION><RA_OF_ASC_NODE>334.3726</RA_OF_ASC_NODE><ARG_OF_PERICENTER>63.5316</ARG_OF_PERICENTER><MEAN_ANOMALY>234.3958</MEAN_ANOMALY></meanElements><tleParameters><EPHEMERIS_TYPE>0</EPHEMERIS_TYPE><CLASSIFICATION_TYPE>U</CLASSIFICATION_TYPE><NORAD_CAT_ID>46151</NORAD_CAT_ID><ELEMENT_SET_NO>999</ELEMENT_SET_NO><REV_AT_EPOCH>177</REV_AT_EPOCH><BSTAR>-.10326E-3</BSTAR><MEAN_MOTION_DOT>-1.4555E-4</MEAN_MOTION_DOT><MEAN_MOTION_DDOT>0</MEAN_MOTION_DDOT></tleParameters></data></segment></body></omm>
<omm id="CCSDS_OMM_VERS" version="2.0">
<header><CREATION_DATE/><ORIGINATOR/></header><body><segment><metadata><OBJECT_NAME>STARLINK-1634</OBJECT_NAME><OBJECT_ID>2020-057AM</OBJECT_ID><CENTER_NAME>EARTH</CENTER_NAME><REF_FRAME>TEME</REF_FRAME><TIME_SYSTEM>UTC</TIME_SYSTEM><MEAN_ELEMENT_THEORY>SGP4</MEAN_ELEMENT_THEORY></metadata><data><meanElements><EPOCH>2020-09-08T22:00:00.999936</EPOCH><MEAN_MOTION>15.62816524</MEAN_MOTION><ECCENTRICITY>.0001099</ECCENTRICITY><INCLINATION>52.9987</INCLINATION><RA_OF_ASC_NODE>335.6092</RA_OF_ASC_NODE><ARG_OF_PERICENTER>49.6288</ARG_OF_PERICENTER><MEAN_ANOMALY>11.8779</MEAN_ANOMALY></meanElements><tleParameters><EPHEMERIS_TYPE>0</EPHEMERIS_TYPE><CLASSIFICATION_TYPE>U</CLASSIFICATION_TYPE><NORAD_CAT_ID>46152</NORAD_CAT_ID><ELEMENT_SET_NO>999</ELEMENT_SET_NO><REV_AT_EPOCH>177</REV_AT_EPOCH><BSTAR>-.74683E-3</BSTAR><MEAN_MOTION_DOT>-6.8511E-4</MEAN_MOTION_DOT><MEAN_MOTION_DDOT>0</MEAN_MOTION_DDOT></tleParameters></data></segment></body></omm>
<omm id="CCSDS_OMM_VERS" version="2.0">
<header><CREATION_DATE/><ORIGINATOR/></header><body><segment><metadata><OBJECT_NAME>STARLINK-1636</OBJECT_NAME><OBJECT_ID>2020-057AN</OBJECT_ID><CENTER_NAME>EARTH</CENTER_NAME><REF_FRAME>TEME</REF_FRAME><TIME_SYSTEM>UTC</TIME_SYSTEM><MEAN_ELEMENT_THEORY>SGP4</MEAN_ELEMENT_THEORY></metadata><data><meanElements><EPOCH>2020-09-08T22:00:00.999936</EPOCH><MEAN_MOTION>15.72201759</MEAN_MOTION><ECCENTRICITY>.0001117</ECCENTRICITY><INCLINATION>52.9973</INCLINATION><RA_OF_ASC_NODE>334.3980</RA_OF_ASC_NODE><ARG_OF_PERICENTER>79.4022</ARG_OF_PERICENTER><MEAN_ANOMALY>205.1430</MEAN_ANOMALY></meanElements><tleParameters><EPHEMERIS_TYPE>0</EPHEMERIS_TYPE><CLASSIFICATION_TYPE>U</CLASSIFICATION_TYPE><NORAD_CAT_ID>46153</NORAD_CAT_ID><ELEMENT_SET_NO>999</ELEMENT_SET_NO><REV_AT_EPOCH>177</REV_AT_EPOCH><BSTAR>-.14941E-3</BSTAR><MEAN_MOTION_DOT>-2.0661E-4</MEAN_MOTION_DOT><MEAN_MOTION_DDOT>0</MEAN_MOTION_DDOT></tleParameters></data></segment></body></omm>
<omm id="CCSDS_OMM_VERS" version="2.0">
<header><CREATION_DATE/><ORIGINATOR/></header><body><segment><metadata><OBJECT_NAME>STARLINK-1642</OBJECT_NAME><OBJECT_ID>2020-057AP</OBJECT_ID><CENTER_NAME>EARTH</CENTER_NAME><REF_FRAME>TEME</REF_FRAME><TIME_SYSTEM>UTC</TIME_SYSTEM><MEAN_ELEMENT_THEORY>SGP4</MEAN_ELEMENT_THEORY></metadata><data><meanElements><EPOCH>2020-09-08T22:00:00.999936</EPOCH><MEAN_MOTION>15.72208202</MEAN_MOTION><ECCENTRICITY>.0000733</ECCENTRICITY><INCLINATION>52.9974</INCLINATION><RA_OF_ASC_NODE>334.3845</RA_OF_ASC_NODE><ARG_OF_PERICENTER>48.1360</ARG_OF_PERICENTER><MEAN_ANOMALY>242.5566</MEAN_ANOMALY></meanElements><tleParameters><EPHEMERIS_TYPE>0</EPHEMERIS_TYPE><CLASSIFICATION_TYPE>U</CLASSIFICATION_TYPE><NORAD_CAT_ID>46154</NORAD_CAT_ID><ELEMENT_SET_NO>999</ELEMENT_SET_NO><REV_AT_EPOCH>177</REV_AT_EPOCH><BSTAR>-.14640E-3</BSTAR><MEAN_MOTION_DOT>-2.0262E-4</MEAN_MOTION_DOT><MEAN_MOTION_DDOT>0</MEAN_MOTION_DDOT></tleParameters></data></segment></body></omm>
<omm id="CCSDS_OMM_VERS" version="2.0">
<header><CREATION_DATE/><ORIGINATOR/></header><body><segment><metadata><OBJECT_NAME>STARLINK-1667</OBJECT_NAME><OBJECT_ID>2020-057AQ</OBJECT_ID><CENTER_NAME>EARTH</CENTER_NAME><REF_FRAME>TEME</REF_FRAME><TIME_SYSTEM>UTC</TIME_SYSTEM><MEAN_ELEMENT_THEORY>SGP4</MEAN_ELEMENT_THEORY></metadata><data><meanElements><EPOCH>2020-09-08T22:00:00.999936</EPOCH><MEAN_MOTION>15.66249018</MEAN_MOTION><ECCENTRICITY>.0001198</ECCENTRICITY><INCLINATION>52.9989</INCLINATION><RA_OF_ASC_NODE>335.2047</RA_OF_ASC_NODE><ARG_OF_PERICENTER>53.4297</ARG_OF_PERICENTER><MEAN_ANOMALY>203.1580</MEAN_ANOMALY></meanElements><tleParameters><EPHEMERIS_TYPE>0</EPHEMERIS_TYPE><CLASSIFICATION_TYPE>U</CLASSIFICATION_TYPE><NORAD_CAT_ID>46155</NORAD_CAT_ID><ELEMENT_SET_NO>999</ELEMENT_SET_NO><REV_AT_EPOCH>177</REV_AT_EPOCH><BSTAR>-.22770E-3</BSTAR><MEAN_MOTION_DOT>-2.444E-4</MEAN_MOTION_DOT><MEAN_MOTION_DDOT>0</MEAN_MOTION_DDOT></tleParameters></data></segment></body></omm>
<omm id="CCSDS_OMM_VERS" version="2.0">
<header><CREATION_DATE/><ORIGINATOR/></header><body><segment><metadata><OBJECT_NAME>STARLINK-1545</OBJECT_NAME><OBJECT_ID>2020-057AR</OBJECT_ID><CENTER_NAME>EARTH</CENTER_NAME><REF_FRAME>TEME</REF_FRAME><TIME_SYSTEM>UTC</TIME_SYSTEM><MEAN_ELEMENT_THEORY>SGP4</MEAN_ELEMENT_THEORY></metadata><data><meanElements><EPOCH>2020-09-08T22:00:00.999936</EPOCH><MEAN_MOTION>15.66246974</MEAN_MOTION><ECCENTRICITY>.0001417</ECCENTRICITY><INCLINATION>52.9999</INCLINATION><RA_OF_ASC_NODE>335.2786</RA_OF_ASC_NODE><ARG_OF_PERICENTER>57.2410</ARG_OF_PERICENTER><MEAN_ANOMALY>166.4489</MEAN_ANOMALY></meanElements><tleParameters><EPHEMERIS_TYPE>0</EPHEMERIS_TYPE><CLASSIFICATION_TYPE>U</CLASSIFICATION_TYPE><NORAD_CAT_ID>46156</NORAD_CAT_ID><ELEMENT_SET_NO>999</ELEMENT_SET_NO><REV_AT_EPOCH>403</REV_AT_EPOCH><BSTAR>-.23494E-3</BSTAR><MEAN_MOTION_DOT>-2.5196E-4</MEAN_MOTION_DOT><MEAN_MOTION_DDOT>0</MEAN_MOTION_DDOT></tleParameters></data></segment></body></omm>

</ndm>
